{
  "type": "FeatureCollection",
  "features": [
    {
      "type": "Feature",
      "properties": {
        "norad_id": 40010,
        "name": "KAZEOSAT 2",
        "group": "resource",
        "lat": -53.77415275252634,
        "lon": -150.96706115485344,
        "alt_km": 623.5215552076252,
        "timestamp": "2025-12-20T16:47:35.948470+00:00",
        "meta_object_name": "KAZEOSAT 2",
        "meta_object_id": "2014-033A",
        "meta_epoch": "2025-12-20T12:11:15.364608",
        "meta_mean_motion": 14.85177886,
        "meta_eccentricity": 0.0008315,
        "meta_inclination": 97.5498,
        "meta_ra_of_asc_node": 198.4207,
        "meta_arg_of_pericenter": 179.6386,
        "meta_mean_anomaly": 180.4837,
        "meta_ephemeris_type": 0,
        "meta_classification_type": "U",
        "meta_norad_cat_id": 40010,
        "meta_element_set_no": 999,
        "meta_rev_at_epoch": 62243,
        "meta_bstar": 1.648e-05,
        "meta_mean_motion_dot": 9.1e-07,
        "meta_mean_motion_ddot": 0,
        "tle_line1": "1 40010U 14033A   25354.50781672  .00000091  00000+0  16480-4 0  9993",
        "tle_line2": "2 40010  97.5498 198.4207 0008315 179.6386 180.4837 14.85177886622430"
      },
      "geometry": {
        "type": "Point",
        "coordinates": [
          -150.96706115485344,
          -53.77415275252634
        ]
      }
    },
    {
      "type": "Feature",
      "properties": {
        "norad_id": 40011,
        "name": "HODOYOSHI-4",
        "group": "resource",
        "lat": 77.90545201832927,
        "lon": 41.37244542067683,
        "alt_km": 593.9615717959005,
        "timestamp": "2025-12-20T16:47:35.948480+00:00",
        "meta_object_name": "HODOYOSHI-4",
        "meta_object_id": "2014-033B",
        "meta_epoch": "2025-12-20T11:30:12.429792",
        "meta_mean_motion": 14.87506831,
        "meta_eccentricity": 0.0023797,
        "meta_inclination": 97.5405,
        "meta_ra_of_asc_node": 182.9808,
        "meta_arg_of_pericenter": 174.6822,
        "meta_mean_anomaly": 185.4653,
        "meta_ephemeris_type": 0,
        "meta_classification_type": "U",
        "meta_norad_cat_id": 40011,
        "meta_element_set_no": 999,
        "meta_rev_at_epoch": 62223,
        "meta_bstar": 0.00015739,
        "meta_mean_motion_dot": 1.382e-05,
        "meta_mean_motion_ddot": 0,
        "tle_line1": "1 40011U 14033B   25354.47931053  .00001382  00000+0  15739-3 0  9999",
        "tle_line2": "2 40011  97.5405 182.9808 0023797 174.6822 185.4653 14.87506831622232"
      },
      "geometry": {
        "type": "Point",
        "coordinates": [
          41.37244542067683,
          77.90545201832927
        ]
      }
    },
    {
      "type": "Feature",
      "properties": {
        "norad_id": 40013,
        "name": "DEIMOS-2",
        "group": "resource",
        "lat": 53.43048151223065,
        "lon": -140.14162617722906,
        "alt_km": 582.9077276404778,
        "timestamp": "2025-12-20T16:47:35.948490+00:00",
        "meta_object_name": "DEIMOS-2",
        "meta_object_id": "2014-033D",
        "meta_epoch": "2025-12-20T13:20:05.208576",
        "meta_mean_motion": 14.93007077,
        "meta_eccentricity": 0.000148,
        "meta_inclination": 97.6069,
        "meta_ra_of_asc_node": 230.0975,
        "meta_arg_of_pericenter": 104.912,
        "meta_mean_anomaly": 255.2264,
        "meta_ephemeris_type": 0,
        "meta_classification_type": "U",
        "meta_norad_cat_id": 40013,
        "meta_element_set_no": 999,
        "meta_rev_at_epoch": 61106,
        "meta_bstar": 0.00021352,
        "meta_mean_motion_dot": 2.165e-05,
        "meta_mean_motion_ddot": 0,
        "tle_line1": "1 40013U 14033D   25354.55561584  .00002165  00000+0  21352-3 0  9996",
        "tle_line2": "2 40013  97.6069 230.0975 0001480 104.9120 255.2264 14.93007077611061"
      },
      "geometry": {
        "type": "Point",
        "coordinates": [
          -140.14162617722906,
          53.43048151223065
        ]
      }
    },
    {
      "type": "Feature",
      "properties": {
        "norad_id": 40015,
        "name": "HODOYOSHI-3",
        "group": "resource",
        "lat": -50.489719937858425,
        "lon": 169.532110315534,
        "alt_km": 620.2433856116004,
        "timestamp": "2025-12-20T16:47:35.948501+00:00",
        "meta_object_name": "HODOYOSHI-3",
        "meta_object_id": "2014-033F",
        "meta_epoch": "2025-12-20T10:33:15.532704",
        "meta_mean_motion": 14.84830501,
        "meta_eccentricity": 0.0032237,
        "meta_inclination": 97.6204,
        "meta_ra_of_asc_node": 159.9401,
        "meta_arg_of_pericenter": 221.7025,
        "meta_mean_anomaly": 138.1732,
        "meta_ephemeris_type": 0,
        "meta_classification_type": "U",
        "meta_norad_cat_id": 40015,
        "meta_element_set_no": 999,
        "meta_rev_at_epoch": 62109,
        "meta_bstar": 0.00014195,
        "meta_mean_motion_dot": 1.164e-05,
        "meta_mean_motion_ddot": 0,
        "tle_line1": "1 40015U 14033F   25354.43976311  .00001164  00000+0  14195-3 0  9998",
        "tle_line2": "2 40015  97.6204 159.9401 0032237 221.7025 138.1732 14.84830501621092"
      },
      "geometry": {
        "type": "Point",
        "coordinates": [
          169.532110315534,
          -50.489719937858425
        ]
      }
    },
    {
      "type": "Feature",
      "properties": {
        "norad_id": 40053,
        "name": "SPOT 7",
        "group": "resource",
        "lat": 61.41940833066582,
        "lon": 41.45691951191118,
        "alt_km": 683.760490423294,
        "timestamp": "2025-12-20T16:47:35.948511+00:00",
        "meta_object_name": "SPOT 7",
        "meta_object_id": "2014-034A",
        "meta_epoch": "2025-12-20T11:34:34.892256",
        "meta_mean_motion": 14.6074365,
        "meta_eccentricity": 0.0001579,
        "meta_inclination": 98.0903,
        "meta_ra_of_asc_node": 56.38,
        "meta_arg_of_pericenter": 85.4072,
        "meta_mean_anomaly": 274.731,
        "meta_ephemeris_type": 0,
        "meta_classification_type": "U",
        "meta_norad_cat_id": 40053,
        "meta_element_set_no": 999,
        "meta_rev_at_epoch": 61104,
        "meta_bstar": 0.00013397,
        "meta_mean_motion_dot": 6.08e-06,
        "meta_mean_motion_ddot": 0,
        "tle_line1": "1 40053U 14034A   25354.48234829  .00000608  00000+0  13397-3 0  9992",
        "tle_line2": "2 40053  98.0903  56.3800 0001579  85.4072 274.7310 14.60743650611045"
      },
      "geometry": {
        "type": "Point",
        "coordinates": [
          41.45691951191118,
          61.41940833066582
        ]
      }
    },
    {
      "type": "Feature",
      "properties": {
        "norad_id": 40072,
        "name": "SKYSAT-B",
        "group": "resource",
        "lat": 38.33409431734321,
        "lon": -67.85267383088804,
        "alt_km": 603.2769610751438,
        "timestamp": "2025-12-20T16:47:35.948521+00:00",
        "meta_object_name": "SKYSAT-B",
        "meta_object_id": "2014-037D",
        "meta_epoch": "2025-12-20T10:09:39.391776",
        "meta_mean_motion": 14.87352271,
        "meta_eccentricity": 0.0006621,
        "meta_inclination": 98.3622,
        "meta_ra_of_asc_node": 298.5355,
        "meta_arg_of_pericenter": 128.6134,
        "meta_mean_anomaly": 231.5674,
        "meta_ephemeris_type": 0,
        "meta_classification_type": "U",
        "meta_norad_cat_id": 40072,
        "meta_element_set_no": 999,
        "meta_rev_at_epoch": 61938,
        "meta_bstar": 0.0001398,
        "meta_mean_motion_dot": 1.202e-05,
        "meta_mean_motion_ddot": 0,
        "tle_line1": "1 40072U 14037D   25354.42337259  .00001202  00000+0  13980-3 0  9990",
        "tle_line2": "2 40072  98.3622 298.5355 0006621 128.6134 231.5674 14.87352271619387"
      },
      "geometry": {
        "type": "Point",
        "coordinates": [
          -67.85267383088804,
          38.33409431734321
        ]
      }
    },
    {
      "type": "Feature",
      "properties": {
        "norad_id": 40115,
        "name": "WORLDVIEW-3 (WV-3)",
        "group": "resource",
        "lat": -48.10666372713511,
        "lon": -121.99681199867837,
        "alt_km": 621.5611155814286,
        "timestamp": "2025-12-20T16:47:35.948531+00:00",
        "meta_object_name": "WORLDVIEW-3 (WV-3)",
        "meta_object_id": "2014-048A",
        "meta_epoch": "2025-12-20T10:54:51.111936",
        "meta_mean_motion": 14.84663942,
        "meta_eccentricity": 0.0001796,
        "meta_inclination": 97.8771,
        "meta_ra_of_asc_node": 66.6396,
        "meta_arg_of_pericenter": 136.5059,
        "meta_mean_anomaly": 223.6297,
        "meta_ephemeris_type": 0,
        "meta_classification_type": "U",
        "meta_norad_cat_id": 40115,
        "meta_element_set_no": 999,
        "meta_rev_at_epoch": 61538,
        "meta_bstar": 9.7643e-05,
        "meta_mean_motion_dot": 7.73e-06,
        "meta_mean_motion_ddot": 0,
        "tle_line1": "1 40115U 14048A   25354.45475824  .00000773  00000+0  97643-4 0  9995",
        "tle_line2": "2 40115  97.8771  66.6396 0001796 136.5059 223.6297 14.84663942615381"
      },
      "geometry": {
        "type": "Point",
        "coordinates": [
          -121.99681199867837,
          -48.10666372713511
        ]
      }
    }
  ]
}